NORAD_CAT_ID,OBJECT_NAME,OBJECT_TYPE,EPOCH,MEAN_MOTION,ECCENTRICITY,INCLINATION,RA_OF_ASC_NODE,ARG_OF_PERICENTER,MEAN_ANOMALY,BSTAR,MEAN_MOTION_DOT,MEAN_MOTION_DDOT,TLE_LINE0,TLE_LINE1,TLE_LINE2,SEMIMAJOR_AXIS,PERIOD,APOGEE,PERIGEE,DECAYED
56498.0,STARLINK-5522,PAYLOAD,2023-11-05 14:00:01,15.41572078,0.0003576,69.9991,103.268,277.5322,161.344,-0.024884,-0.00959985,0.0,0 STARLINK-5522,1 56498U 23064BC  23309.58334491 -.00959985  00000-0 -24884-1 0  9995,2 56498  69.9991 103.2680 0003576 277.5322 161.3440 15.41572078 28432,6819.606,93.411,443.91,439.032,0.0
56498.0,STARLINK-5522,PAYLOAD,2023-11-05 22:00:00,15.4088099,0.0003518,69.9986,102.37,282.2917,205.5052,-0.023591,-0.00894811,0.0,0 STARLINK-5522,1 56498U 23064BC  23309.91667824 -.00894811  00000-0 -23591-1 0  9991,2 56498  69.9986 102.3700 0003518 282.2917 205.5052 15.40880990  5763,6821.645,93.453,445.91,441.11,0.0
56498.0,STARLINK-5522,PAYLOAD,2023-11-06 06:00:00,15.40203234,0.0003341,69.9985,101.4731,275.4679,260.4628,-0.023122,-0.00860253,0.0,0 STARLINK-5522,1 56498U 23064BC  23310.25001157 -.00860253  00000-0 -23122-1 0  9994,2 56498  69.9985 101.4731 0003341 275.4679 260.4628 15.40203234 28538,6823.646,93.494,447.791,443.231,0.0
56498.0,STARLINK-5522,PAYLOAD,2023-11-06 14:00:01,15.39606541,0.0003394,69.9988,100.577,276.3492,306.9724,-0.026171,-0.00946922,0.0,0 STARLINK-5522,1 56498U 23064BC  23310.58335648 -.00946922  00000-0 -26171-1 0  9990,2 56498  69.9988 100.5770 0003394 276.3492 306.9724 15.39606541  5876,6825.409,93.53,449.59,444.957,0.0
56498.0,STARLINK-5522,PAYLOAD,2023-11-06 22:00:00,15.3893177,0.0003473,69.9984,99.6818,280.5086,349.3179,-0.025522,-0.0090662,0.0,0 STARLINK-5522,1 56498U 23064BC  23310.91667824 -.00906620  00000-0 -25522-1 0  9991,2 56498  69.9984  99.6818 0003473 280.5086 349.3179 15.38931770 28635,6827.404,93.571,451.64,446.898,0.0
56498.0,STARLINK-5522,PAYLOAD,2023-11-07 14:00:01,15.37643506,0.0003447,69.9985,97.8943,275.9228,84.7378,-0.027644,-0.00938621,0.0,0 STARLINK-5522,1 56498U 23064BC  23311.58335648 -.00938621  00000-0 -27644-1 0  9994,2 56498  69.9985  97.8943 0003447 275.9228  84.7378 15.37643506 28741,6831.217,93.65,455.437,450.727,0.0
56498.0,STARLINK-5522,PAYLOAD,2023-11-08 14:00:01,15.35687894,0.0003371,69.9984,95.22,276.5018,214.3926,-0.02953,-0.00940928,0.0,0 STARLINK-5522,1 56498U 23064BC  23312.58334491 -.00940928  00000-0 -29530-1 0  9999,2 56498  69.9984  95.2200 0003371 276.5018 214.3926 15.35687894  5985,6837.015,93.769,461.185,456.575,0.0
56498.0,STARLINK-5522,PAYLOAD,2023-11-08 22:00:00,15.35026844,0.0003314,69.998,94.3301,280.6643,252.0993,-0.029513,-0.00922275,0.0,0 STARLINK-5522,1 56498U 23064BC  23312.91667824 -.00922275  00000-0 -29513-1 0  9991,2 56498  69.9980  94.3301 0003314 280.6643 252.0993 15.35026844 28946,6838.978,93.809,463.109,458.576,0.0
56498.0,STARLINK-5522,PAYLOAD,2023-11-09 14:00:01,15.33726818,0.000332,69.9986,92.5534,275.1562,338.997,-0.031171,-0.00933524,0.0,0 STARLINK-5522,1 56498U 23064BC  23313.58334491 -.00933524  00000-0 -31171-1 0  9998,2 56498  69.9986  92.5534 0003320 275.1562 338.9970 15.33726818  6037,6842.842,93.889,466.979,462.435,0.0
56498.0,STARLINK-5522,PAYLOAD,2023-11-09 22:00:00,15.33067771,0.0003465,69.9982,91.666,279.1714,14.503,-0.031348,-0.009206,0.0,0 STARLINK-5522,1 56498U 23064BC  23313.91667824 -.00920600  00000-0 -31348-1 0  9991,2 56498  69.9982  91.6660 0003465 279.1714  14.5030 15.33067771  5990,6844.803,93.929,469.039,464.296,0.0
56498.0,STARLINK-5522,PAYLOAD,2023-11-10 06:00:00,15.32374769,0.0003443,69.9984,90.7799,273.5405,58.8839,-0.029486,-0.0085272,0.0,0 STARLINK-5522,1 56498U 23064BC  23314.25001157 -.00852720  00000-0 -29486-1 0  9997,2 56498  69.9984  90.7799 0003443 273.5405  58.8839 15.32374769 29144,6846.866,93.972,471.089,466.374,0.0
56498.0,STARLINK-5522,PAYLOAD,2023-11-10 14:00:01,15.31775606,0.0003527,69.9988,89.8946,276.747,93.6196,-0.033493,-0.00942399,0.0,0 STARLINK-5522,1 56498U 23064BC  23314.58334491 -.00942399  00000-0 -33493-1 0  9998,2 56498  69.9988  89.8946 0003527 276.7470  93.6196 15.31775606  6031,6848.652,94.009,472.932,468.101,0.0
56498.0,STARLINK-5522,PAYLOAD,2023-11-10 22:00:00,15.31110966,0.0003506,69.9985,89.0102,281.5984,125.9445,-0.033283,-0.00919253,0.0,0 STARLINK-5522,1 56498U 23064BC  23314.91667824 -.00919253  00000-0 -33283-1 0  9994,2 56498  69.9985  89.0102 0003506 281.5984 125.9445 15.31110966 29252,6850.633,94.049,474.9,470.097,0.0
56498.0,STARLINK-5522,PAYLOAD,2023-11-11 14:00:01,15.29814769,0.0003385,69.9991,87.244,278.1702,201.3739,-0.035418,-0.00937834,0.0,0 STARLINK-5522,1 56498U 23064BC  23315.58334491 -.00937834  00000-0 -35418-1 0  9996,2 56498  69.9991  87.2440 0003385 278.1702 201.3739 15.29814769  6045,6854.503,94.129,478.688,474.047,0.0
56498.0,STARLINK-5522,PAYLOAD,2023-11-11 22:00:01,15.29040424,0.0003423,69.9989,86.3621,280.3788,234.0767,-0.022862,-0.00604133,0.0,0 STARLINK-5522,1 56498U 23064BC  23315.91668981 -.00604133  00000-0 -22862-1 0  9999,2 56498  69.9989  86.3621 0003423 280.3788 234.0767 15.29040424 29403,6856.817,94.177,481.029,476.334,0.0
56498.0,STARLINK-5522,PAYLOAD,2023-11-12 06:00:00,15.28552041,0.0003452,69.9992,85.4813,273.67,274.7679,0.0027051,0.00075996,0.0,0 STARLINK-5522,1 56498U 23064BC  23316.25001157  .00075996  00000-0  27051-2 0  9996,2 56498  69.9992  85.4813 0003452 273.6700 274.7679 15.28552041 29451,6858.277,94.207,482.509,477.775,0.0
56498.0,STARLINK-5522,PAYLOAD,2023-11-12 14:00:01,15.28595431,0.0003531,69.9998,84.6004,277.2952,304.8985,-0.00034446,-9.722e-05,0.0,0 STARLINK-5522,1 56498U 23064BC  23316.58334491 -.00009722  00000-0 -34446-3 0  9995,2 56498  69.9998  84.6004 0003531 277.2952 304.8985 15.28595431 29508,6858.147,94.204,482.434,477.591,0.0
56498.0,STARLINK-5522,PAYLOAD,2023-11-12 22:00:00,15.28618583,0.0003496,69.9998,83.7201,279.974,335.9898,-0.00096638,-0.00027004,0.0,0 STARLINK-5522,1 56498U 23064BC  23316.91667824 -.00027004  00000-0 -96638-3 0  9995,2 56498  69.9998  83.7201 0003496 279.9740 335.9898 15.28618583  5990,6858.078,94.203,482.341,477.545,0.0
56498.0,STARLINK-5522,PAYLOAD,2023-11-13 06:00:00,15.28575415,0.0003445,70.0,82.8396,274.1836,15.5813,0.0027497,0.0007732,0.0,0 STARLINK-5522,1 56498U 23064BC  23317.25001157  .00077320  00000-0  27497-2 0  9994,2 56498  70.0000  82.8396 0003445 274.1836  15.5813 15.28575415 29607,6858.207,94.205,482.435,477.709,0.0
56498.0,STARLINK-5522,PAYLOAD,2023-11-13 14:00:01,15.28627588,0.0003485,70.0004,81.9591,277.6799,45.8718,-0.0011314,-0.00031583,0.0,0 STARLINK-5522,1 56498U 23064BC  23317.58334491 -.00031583  00000-0 -11314-2 0  9994,2 56498  70.0004  81.9591 0003485 277.6799  45.8718 15.28627588  6040,6858.051,94.202,482.306,477.526,0.0
56498.0,STARLINK-5522,PAYLOAD,2023-11-13 22:00:00,15.28630247,0.0003439,70.0003,81.0785,279.53,77.8202,-0.0021344,-0.00059255,0.0,0 STARLINK-5522,1 56498U 23064BC  23317.91667824 -.00059255  00000-0 -21344-2 0  9990,2 56498  70.0003  81.0785 0003439 279.5300  77.8202 15.28630247 29711,6858.043,94.202,482.267,477.55,0.0
56498.0,STARLINK-5522,PAYLOAD,2023-11-14 14:00:01,15.28603247,0.0003427,70.0007,79.3177,276.7853,148.1326,-0.00044815,-0.00012608,0.0,0 STARLINK-5522,1 56498U 23064BC  23318.58334491 -.00012608  00000-0 -44815-3 0  9995,2 56498  70.0007  79.3177 0003427 276.7853 148.1326 15.28603247 29819,6858.124,94.204,482.339,477.639,0.0
56498.0,STARLINK-5522,PAYLOAD,2023-11-14 22:00:00,15.28625823,0.0003375,70.0005,78.4371,279.3711,179.3223,-0.0012941,-0.00036082,0.0,0 STARLINK-5522,1 56498U 23064BC  23318.91667824 -.00036082  00000-0 -12941-2 0  9997,2 56498  70.0005  78.4371 0003375 279.3711 179.3223 15.28625823  6043,6858.056,94.202,482.236,477.607,0.0
56498.0,STARLINK-5522,PAYLOAD,2023-11-15 11:42:16,15.28607676,0.0003224,69.9984,76.9275,278.5936,81.4873,-1.0399e-05,-4.17e-06,0.0,0 STARLINK-5522,1 56498U 23064BC  23319.48769446 -.00000417  00000-0 -10399-4 0  9993,2 56498  69.9984  76.9275 0003224 278.5936  81.4873 15.28607676 29950,6858.111,94.203,482.187,477.765,0.0
56498.0,STARLINK-5522,PAYLOAD,2023-11-15 17:59:12,15.28604227,0.0003606,69.9974,76.2346,279.7551,80.3216,-2.9639e-05,-9.53e-06,0.0,0 STARLINK-5522,1 56498U 23064BC  23319.74945089 -.00000953  00000-0 -29639-4 0  9993,2 56498  69.9974  76.2346 0003606 279.7551  80.3216 15.28604227 29634,6858.121,94.204,482.459,477.513,0.0
56498.0,STARLINK-5522,PAYLOAD,2023-11-16 08:07:17,15.28600064,0.0003589,69.998,74.6798,282.0892,77.988,1.3339e-05,2.46e-06,0.0,0 STARLINK-5522,1 56498U 23064BC  23320.33839594  .00000246  00000-0  13339-4 0  9996,2 56498  69.9980  74.6798 0003589 282.0892  77.9880 15.28600064 30084,6858.133,94.204,482.46,477.537,0.0
56498.0,STARLINK-5522,PAYLOAD,2023-11-16 09:41:31,15.28605974,0.0003398,69.9984,74.5056,280.676,79.4032,-1.9703e-05,-6.76e-06,0.0,0 STARLINK-5522,1 56498U 23064BC  23320.40383311 -.00000676  00000-0 -19703-4 0  9995,2 56498  69.9984  74.5056 0003398 280.6760  79.4032 15.28605974 29731,6858.116,94.203,482.311,477.65,0.0
56498.0,STARLINK-5522,PAYLOAD,2023-11-17 10:49:13,15.28627773,0.0003718,69.9991,71.7436,281.0348,79.0408,-0.00019941,-5.69e-05,0.0,0 STARLINK-5522,1 56498U 23064BC  23321.45084660 -.00005690  00000-0 -19941-3 0  9990,2 56498  69.9991  71.7436 0003718 281.0348  79.0408 15.28627773 30256,6858.05,94.202,482.465,477.366,0.0
56498.0,STARLINK-5522,PAYLOAD,2023-11-17 13:57:40,15.28631589,0.0003577,69.9989,71.3976,276.5428,83.5339,-0.00024969,-7.092e-05,0.0,0 STARLINK-5522,1 56498U 23064BC  23321.58172207 -.00007092  00000-0 -24969-3 0  9993,2 56498  69.9989  71.3976 0003577 276.5428  83.5339 15.28631589 29913,6858.039,94.202,482.357,477.451,0.0
56498.0,STARLINK-5522,PAYLOAD,2023-11-18 10:22:41,15.28603541,0.0003455,69.9985,69.1487,272.856,87.2219,2.4805e-06,-5.7e-07,0.0,0 STARLINK-5522,1 56498U 23064BC  23322.43242307 -.00000057  00000-0  24805-5 0  9991,2 56498  69.9985  69.1487 0003455 272.8560  87.2219 15.28603541 30403,6858.123,94.204,482.357,477.618,0.0
